OBJECT_NAME,OBJECT_ID,EPOCH,MEAN_MOTION,ECCENTRICITY,INCLINATION,RA_OF_ASC_NODE,ARG_OF_PERICENTER,MEAN_ANOMALY,EPHEMERIS_TYPE,CLASSIFICATION_TYPE,NORAD_CAT_ID,ELEMENT_SET_NO,REV_AT_EPOCH,BSTAR,MEAN_MOTION_DOT,MEAN_MOTION_DDOT
LEMUR-1,2014-033AL,2026-07-09T09:22:35.558976,14.85326036,.00482834,97.7901,339.7062,7.0442,353.1441,0,U,40044,999,64876,.14974479E-3,.1258E-4,0
LEMUR-2-GREENBERG,2017-042N,2026-07-09T11:53:19.376160,15.32031511,.00071356,97.3831,11.0293,283.6729,76.3718,0,U,42837,999,49180,.3749711E-3,.11532E-3,0
LEMUR-2-ANDIS,2017-042P,2026-07-09T17:35:06.455040,15.35772741,.00070991,97.3683,11.5304,281.4571,78.5875,0,U,42838,999,49191,.45347156E-3,.15725E-3,0
LEMUR-2-MONSON,2017-042Q,2026-07-10T11:15:45.883584,15.28674858,.00051568,97.4089,11.9359,266.7916,93.2733,0,U,42839,999,49172,.34676682E-3,.96E-4,0
LEMUR-2-PETERG,2017-042S,2026-07-09T11:16:18.280128,15.34883639,.00029493,97.3999,15.5513,247.6478,112.4453,0,U,42841,999,49185,.50201144E-3,.16921E-3,0
LEMUR-2-DEMBITZ,2017-042T,2026-07-10T10:32:25.711872,15.31014043,.00050513,97.3830,12.9130,296.1188,63.9533,0,U,42842,999,49190,.42317105E-3,.12615E-3,0
LEMUR-2-ZACHARY,2017-042W,2026-07-09T19:57:23.286528,15.52354875,.00023798,97.3589,22.9819,275.3054,84.7927,0,U,42845,999,49271,.66596221E-3,.40627E-3,0
LEMUR-2-SPECIAL-K,2021-034F,2026-07-09T11:36:21.286080,15.72652165,.00060947,97.5638,279.0810,220.1944,139.8869,0,U,48273,999,28518,.1370293E-2,.187516E-2,0
LEMUR-2-EMBRIONOVIS,2023-084AQ,2026-07-10T08:47:03.778944,15.38146742,.00079165,97.6309,336.4682,225.0673,134.9930,0,U,56970,999,17124,.2788E-3,.10396E-3,0
LEMUR-2-VALHALLA,2024-022B,2026-07-09T19:36:16.171776,15.40375714,.00098007,97.4095,41.0892,41.9316,318.2679,0,U,58900,999,13575,.29655782E-3,.11917E-3,0
LEMUR-2-CAEL,2024-022E,2026-07-09T13:08:31.439904,15.41725396,.00077567,97.4076,41.7924,28.9089,331.2586,0,U,58903,999,13578,.31637064E-3,.13295E-3,0
LEMUR-2-JOHNNYTRUONG,2024-043BA,2026-07-09T09:21:06.778656,15.62219537,.00043473,97.5385,343.4983,109.9411,250.2315,0,U,59146,999,13150,.3921649E-3,.34473E-3,0
LEMUR-2-TOMATOKECHUP,2024-149D,2026-07-10T03:57:48.083904,15.36515487,.00030486,97.3795,273.2768,131.7960,228.3545,0,U,60471,999,10569,.23403615E-3,.8259E-4,0
LEMUR-2-STELLA,2024-149BT,2026-07-09T01:15:57.192192,15.12285468,.00010331,97.6729,272.6092,111.4430,248.6911,0,U,60533,999,10380,.46022355E-3,.7901E-4,0
LEMUR-2-MARHISYAM,2024-149BW,2026-07-10T03:59:47.651136,15.11717897,.00028183,97.6880,274.2005,77.1938,282.9606,0,U,60536,999,10395,.46249155E-3,.7816E-4,0
LEMUR-2-AHMED-ASRAR,2024-149DN,2026-07-10T04:16:27.563520,15.13238870,.00007304,97.7004,276.3951,234.1758,125.9404,0,U,60576,999,10404,.4994243E-3,.8812E-4,0
LEMUR-2-LLOYD,2024-149DP,2026-07-09T01:13:20.078112,15.09671321,.00048155,97.6737,271.1966,85.7812,274.3967,0,U,60577,999,10369,.43277782E-3,.6907E-4,0
LEMUR-2-SQUIRRELCOMM,2024-149DQ,2026-07-08T00:49:41.985408,15.07397331,.00047468,97.6707,269.8822,354.4134,5.7039,0,U,60578,999,10354,.24740327E-3,.3681E-4,0
LEMUR-2-SIERRINI,2024-149DR,2026-07-09T11:11:26.207520,15.11432329,.00064548,97.6834,273.1629,105.6360,254.5582,0,U,60579,999,10382,.46373773E-3,.7778E-4,0
LEMUR-2-WILSON,2025-009CP,2026-07-09T04:17:57.532704,14.95266051,.00024383,97.7024,268.2582,357.7647,2.3562,0,U,62694,999,8064,.1489224E-3,.1582E-4,0
LEMUR-2-STAR-FOX,2025-009CR,2026-07-10T04:47:35.175552,15.02805279,.00029409,97.6923,272.6444,60.6967,299.4551,0,U,62696,999,8101,.32139604E-3,.4242E-4,0
LEMUR-2-ARIANNA,2025-009CU,2026-07-10T04:45:22.887648,15.02805498,.00031917,97.6860,272.3989,65.7714,294.3844,0,U,62699,999,8101,.33829628E-3,.4468E-4,0
LEMUR-2-ALISIA,2025-009DB,2026-07-10T04:07:09.263136,15.03127226,.0003689,97.6965,273.1869,145.0737,215.0731,0,U,62706,999,10361,.44972112E-3,.6013E-4,0
